start=new Date('2022-03-11T00:00:00.000Z').valueOf();
sats=[{"PERIAPSIS":"546.004","REF_FRAME":"TEME","APOAPSIS":"548.408","NORAD_CAT_ID":"46154","EPHEMERIS_TYPE":"0","COUNTRY_CODE":"US","MEAN_ANOMALY":"299.9846","PERIOD":"95.592","RCS_SIZE":"LARGE","MEAN_MOTION_DDOT":"0.0000000000000","EPOCH":"2022-03-10T13:27:19.393632","TLE_LINE1":"1 46154U 20057AP  22069.56064113  .00004500  00000-0  32078-3 0  9991","MEAN_MOTION":"15.06402517","FILE":"3353544","REV_AT_EPOCH":"8678","BSTAR":"0.00032078000000","TIME_SYSTEM":"UTC","ELEMENT_SET_NO":"999","DECAY_DATE":null,"SEMIMAJOR_AXIS":"6925.341","TLE_LINE2":"2 46154  53.0558  21.4009 0001736  60.1315 299.9846 15.06402517 86784","MEAN_MOTION_DOT":"0.00004500","INCLINATION":"53.0558","CENTER_NAME":"EARTH","OBJECT_TYPE":"PAYLOAD","OBJECT_NAME":"STARLINK-1642","ECCENTRICITY":"0.00017360","ARG_OF_PERICENTER":"60.1315","GP_ID":"198404047","SITE":"AFETR","LAUNCH_DATE":"2020-08-18","RA_OF_ASC_NODE":"21.4009","MEAN_ELEMENT_THEORY":"SGP4","CLASSIFICATION_TYPE":"U","OBJECT_ID":"2020-057AP"},{"EPHEMERIS_TYPE":"0","NORAD_CAT_ID":"46155","APOAPSIS":"548.327","REF_FRAME":"TEME","PERIAPSIS":"545.970","FILE":"3354091","MEAN_MOTION":"15.06421197","TLE_LINE1":"1 46155U 20057AQ  22069.91726202  .00010107  00000-0  69605-3 0  9991","PERIOD":"95.591","RCS_SIZE":"LARGE","EPOCH":"2022-03-10T22:00:51.438528","MEAN_MOTION_DDOT":"0.0000000000000","MEAN_ANOMALY":"297.0772","COUNTRY_CODE":"US","OBJECT_TYPE":"PAYLOAD","CENTER_NAME":"EARTH","INCLINATION":"53.0545","MEAN_MOTION_DOT":"0.00010107","TLE_LINE2":"2 46155  53.0545 349.7803 0001702  63.0391 297.0772 15.06421197 87848","SEMIMAJOR_AXIS":"6925.284","DECAY_DATE":null,"ELEMENT_SET_NO":"999","TIME_SYSTEM":"UTC","BSTAR":"0.00069605000000","REV_AT_EPOCH":"8784","OBJECT_ID":"2020-057AQ","CLASSIFICATION_TYPE":"U","MEAN_ELEMENT_THEORY":"SGP4","RA_OF_ASC_NODE":"349.7803","LAUNCH_DATE":"2020-08-18","SITE":"AFETR","GP_ID":"198435524","ARG_OF_PERICENTER":"63.0391","ECCENTRICITY":"0.00017020","OBJECT_NAME":"STARLINK-1667"},{"TLE_LINE2":"2 46156  53.0552  11.0133 0001576  59.6919 300.4226 15.06397394 86953","SEMIMAJOR_AXIS":"6925.357","DECAY_DATE":null,"ELEMENT_SET_NO":"999","TIME_SYSTEM":"UTC","BSTAR":"0.00021465000000","REV_AT_EPOCH":"8695","OBJECT_TYPE":"PAYLOAD","CENTER_NAME":"EARTH","INCLINATION":"53.0552","MEAN_MOTION_DOT":"0.00002917","SITE":"AFETR","GP_ID":"198411116","ARG_OF_PERICENTER":"59.6919","ECCENTRICITY":"0.00015760","OBJECT_NAME":"STARLINK-1545","OBJECT_ID":"2020-057AR","CLASSIFICATION_TYPE":"U","MEAN_ELEMENT_THEORY":"SGP4","RA_OF_ASC_NODE":"11.0133","LAUNCH_DATE":"2020-08-18","PERIAPSIS":"546.130","EPHEMERIS_TYPE":"0","NORAD_CAT_ID":"46156","APOAPSIS":"548.313","REF_FRAME":"TEME","FILE":"3353850","MEAN_MOTION":"15.06397394","TLE_LINE1":"1 46156U 20057AR  22069.64264699  .00002917  00000-0  21465-3 0  9991","MEAN_MOTION_DDOT":"0.0000000000000","RCS_SIZE":"LARGE","PERIOD":"95.592","EPOCH":"2022-03-10T15:25:24.699936","MEAN_ANOMALY":"300.4226","COUNTRY_CODE":"US"},{"ECCENTRICITY":"0.00020680","ARG_OF_PERICENTER":"51.0016","OBJECT_NAME":"STARLINK-1587","GP_ID":"198397260","SITE":"AFETR","MEAN_ELEMENT_THEORY":"SGP4","LAUNCH_DATE":"2020-08-18","RA_OF_ASC_NODE":"351.6761","CLASSIFICATION_TYPE":"U","OBJECT_ID":"2020-057AS","TIME_SYSTEM":"UTC","ELEMENT_SET_NO":"999","REV_AT_EPOCH":"8654","BSTAR":"0.00033290000000","TLE_LINE2":"2 46157  53.0570 351.6761 0002068  51.0016 309.1156 15.06389439 86549","DECAY_DATE":null,"SEMIMAJOR_AXIS":"6925.381","MEAN_MOTION_DOT":"0.00004679","CENTER_NAME":"EARTH","OBJECT_TYPE":"PAYLOAD","INCLINATION":"53.0570","MEAN_ANOMALY":"309.1156","COUNTRY_CODE":"US","FILE":"3353482","MEAN_MOTION":"15.06389439","RCS_SIZE":"LARGE","PERIOD":"95.593","MEAN_MOTION_DDOT":"0.0000000000000","EPOCH":"2022-03-10T11:55:46.666560","TLE_LINE1":"1 46157U 20057AS  22069.49706790  .00004679  00000-0  33290-3 0  9994","PERIAPSIS":"545.814","REF_FRAME":"TEME","EPHEMERIS_TYPE":"0","APOAPSIS":"548.678","NORAD_CAT_ID":"46157"},{"PERIAPSIS":"546.169","REF_FRAME":"TEME","APOAPSIS":"548.363","NORAD_CAT_ID":"46158","EPHEMERIS_TYPE":"0","COUNTRY_CODE":"US","MEAN_ANOMALY":"296.3996","RCS_SIZE":"LARGE","MEAN_MOTION_DDOT":"0.0000000000000","PERIOD":"95.593","EPOCH":"2022-03-10T11:50:28.381920","TLE_LINE1":"1 46158U 20057AT  22069.49338405  .00002783  00000-0  20578-3 0  9998","FILE":"3353507","MEAN_MOTION":"15.06382952","REV_AT_EPOCH":"8720","BSTAR":"0.00020578000000","TIME_SYSTEM":"UTC","ELEMENT_SET_NO":"999","DECAY_DATE":null,"SEMIMAJOR_AXIS":"6925.401","TLE_LINE2":"2 46158  53.0567 351.6992 0001584  63.7156 296.3996 15.06382952 87205","MEAN_MOTION_DOT":"0.00002783","INCLINATION":"53.0567","CENTER_NAME":"EARTH","OBJECT_TYPE":"PAYLOAD","OBJECT_NAME":"STARLINK-1589","ECCENTRICITY":"0.00015840","ARG_OF_PERICENTER":"63.7156","GP_ID":"198402812","SITE":"AFETR","LAUNCH_DATE":"2020-08-18","RA_OF_ASC_NODE":"351.6992","MEAN_ELEMENT_THEORY":"SGP4","CLASSIFICATION_TYPE":"U","OBJECT_ID":"2020-057AT"},{"MEAN_ANOMALY":"298.8701","COUNTRY_CODE":"US","FILE":"3353482","MEAN_MOTION":"15.06395082","TLE_LINE1":"1 46159U 20057AU  22069.26852459  .00002458  00000-0  18385-3 0  9996","EPOCH":"2022-03-10T06:26:40.524576","RCS_SIZE":"LARGE","PERIOD":"95.592","MEAN_MOTION_DDOT":"0.0000000000000","REF_FRAME":"TEME","EPHEMERIS_TYPE":"0","NORAD_CAT_ID":"46159","APOAPSIS":"548.410","PERIAPSIS":"546.047","MEAN_ELEMENT_THEORY":"SGP4","RA_OF_ASC_NODE":"32.7079","LAUNCH_DATE":"2020-08-18","CLASSIFICATION_TYPE":"U","OBJECT_ID":"2020-057AU","ARG_OF_PERICENTER":"61.2459","ECCENTRICITY":"0.00017060","OBJECT_NAME":"STARLINK-1595","SITE":"AFETR","GP_ID":"198397749","MEAN_MOTION_DOT":"0.00002458","OBJECT_TYPE":"PAYLOAD","CENTER_NAME":"EARTH","INCLINATION":"53.0558","ELEMENT_SET_NO":"999","TIME_SYSTEM":"UTC","BSTAR":"0.00018385000000","REV_AT_EPOCH":"8720","TLE_LINE2":"2 46159  53.0558  32.7079 0001706  61.2459 298.8701 15.06395082 87203","SEMIMAJOR_AXIS":"6925.364","DECAY_DATE":null},{"MEAN_MOTION_DOT":"0.00000495","INCLINATION":"53.0554","CENTER_NAME":"EARTH","OBJECT_TYPE":"PAYLOAD","REV_AT_EPOCH":"8692","BSTAR":"0.00005217800000","TIME_SYSTEM":"UTC","ELEMENT_SET_NO":"999","DECAY_DATE":null,"SEMIMAJOR_AXIS":"6925.356","TLE_LINE2":"2 46160  53.0554  11.5483 0002058  48.5515 311.5651 15.06397673 86920","LAUNCH_DATE":"2020-08-18","RA_OF_ASC_NODE":"11.5483","MEAN_ELEMENT_THEORY":"SGP4","CLASSIFICATION_TYPE":"U","OBJECT_ID":"2020-057AV","OBJECT_NAME":"STARLINK-1598","ECCENTRICITY":"0.00020580","ARG_OF_PERICENTER":"48.5515","GP_ID":"198410439","SITE":"AFETR","REF_FRAME":"TEME","APOAPSIS":"548.646","NORAD_CAT_ID":"46160","EPHEMERIS_TYPE":"0","PERIAPSIS":"545.795","COUNTRY_CODE":"US","MEAN_ANOMALY":"311.5651","RCS_SIZE":"LARGE","PERIOD":"95.592","EPOCH":"2022-03-10T12:35:33.336960","MEAN_MOTION_DDOT":"0.0000000000000","TLE_LINE1":"1 46160U 20057AV  22069.52469140  .00000495  00000-0  52178-4 0  9996","FILE":"3353794","MEAN_MOTION":"15.06397673"},{"REF_FRAME":"TEME","NORAD_CAT_ID":"46161","APOAPSIS":"548.277","EPHEMERIS_TYPE":"0","PERIAPSIS":"546.219","COUNTRY_CODE":"US","MEAN_ANOMALY":"288.2634","TLE_LINE1":"1 46161U 20057AW  22069.76797777  .00000739  00000-0  68508-4 0  9998","RCS_SIZE":"LARGE","PERIOD":"95.593","EPOCH":"2022-03-10T18:25:53.279328","MEAN_MOTION_DDOT":"0.0000000000000","FILE":"3354091","MEAN_MOTION":"15.06388822","MEAN_MOTION_DOT":"0.00000739","INCLINATION":"53.0562","OBJECT_TYPE":"PAYLOAD","CENTER_NAME":"EARTH","BSTAR":"0.00006850800000","REV_AT_EPOCH":"8755","ELEMENT_SET_NO":"999","TIME_SYSTEM":"UTC","SEMIMAJOR_AXIS":"6925.383","DECAY_DATE":null,"TLE_LINE2":"2 46161  53.0562  10.4543 0001486  71.8517 288.2634 15.06388822 87557","RA_OF_ASC_NODE":"10.4543","LAUNCH_DATE":"2020-08-18","MEAN_ELEMENT_THEORY":"SGP4","CLASSIFICATION_TYPE":"U","OBJECT_ID":"2020-057AW","OBJECT_NAME":"STARLINK-1600","ARG_OF_PERICENTER":"71.8517","ECCENTRICITY":"0.00014860","SITE":"AFETR","GP_ID":"198436519"},{"MEAN_ELEMENT_THEORY":"SGP4","RA_OF_ASC_NODE":"11.3353","LAUNCH_DATE":"2020-08-18","CLASSIFICATION_TYPE":"U","OBJECT_ID":"2020-057AX","ARG_OF_PERICENTER":"53.4545","ECCENTRICITY":"0.00016230","OBJECT_NAME":"STARLINK-1603","SITE":"AFETR","GP_ID":"198397001","MEAN_MOTION_DOT":"0.00001072","OBJECT_TYPE":"PAYLOAD","CENTER_NAME":"EARTH","INCLINATION":"53.0572","ELEMENT_SET_NO":"999","TIME_SYSTEM":"UTC","BSTAR":"0.00009085700000","REV_AT_EPOCH":"8753","TLE_LINE2":"2 46162  53.0572  11.3353 0001623  53.4545 306.6593 15.06394180 87539","SEMIMAJOR_AXIS":"6925.366","DECAY_DATE":null,"MEAN_ANOMALY":"306.6593","COUNTRY_CODE":"US","FILE":"3353482","MEAN_MOTION":"15.06394180","TLE_LINE1":"1 46162U 20057AX  22069.57262309  .00001072  00000-0  90857-4 0  9999","RCS_SIZE":"LARGE","PERIOD":"95.593","MEAN_MOTION_DDOT":"0.0000000000000","EPOCH":"2022-03-10T13:44:34.634976","REF_FRAME":"TEME","EPHEMERIS_TYPE":"0","NORAD_CAT_ID":"46162","APOAPSIS":"548.355","PERIAPSIS":"546.107"},{"OBJECT_NAME":"STARLINK-1610","ECCENTRICITY":"0.00017940","ARG_OF_PERICENTER":"58.6526","GP_ID":"198403023","SITE":"AFETR","LAUNCH_DATE":"2020-08-18","RA_OF_ASC_NODE":"351.6439","MEAN_ELEMENT_THEORY":"SGP4","CLASSIFICATION_TYPE":"U","OBJECT_ID":"2020-057AY","REV_AT_EPOCH":"8720","BSTAR":"0.00015524000000","TIME_SYSTEM":"UTC","ELEMENT_SET_NO":"999","DECAY_DATE":null,"SEMIMAJOR_AXIS":"6925.408","TLE_LINE2":"2 46163  53.0550 351.6439 0001794  58.6526 301.4638 15.06380712 87209","MEAN_MOTION_DOT":"0.00002030","INCLINATION":"53.0550","CENTER_NAME":"EARTH","OBJECT_TYPE":"PAYLOAD","COUNTRY_CODE":"US","MEAN_ANOMALY":"301.4638","PERIOD":"95.593","RCS_SIZE":"LARGE","EPOCH":"2022-03-10T12:06:23.065632","MEAN_MOTION_DDOT":"0.0000000000000","TLE_LINE1":"1 46163U 20057AY  22069.50443363  .00002030  00000-0  15524-3 0  9996","FILE":"3353522","MEAN_MOTION":"15.06380712","PERIAPSIS":"546.030","REF_FRAME":"TEME","APOAPSIS":"548.515","NORAD_CAT_ID":"46163","EPHEMERIS_TYPE":"0"}];
